ONEWEB-0512             
1 54130U 22138T   25231.86075801  .00000018  00000+0  13763-4 0  9999
2 54130  87.9249   4.8912 0002011  85.4595 274.6767 13.19724085137064
ONEWEB-0513             
1 54131U 22138U   25231.84185823 -.00000064  00000+0 -19146-3 0  9997
2 54131  87.9268   4.8555 0002354  86.0853 274.0549 13.20313121136959
ONEWEB-0514             
1 54132U 22138V   25231.87655949 -.00000012  00000+0 -62411-4 0  9999
2 54132  87.9264   4.8583 0001874 100.8997 259.2347 13.19725043137081
ONEWEB-0515             
1 54133U 22138W   25231.83409051 -.00000119  00000+0 -32396-3 0  9993
2 54133  87.9310 334.4716 0001406 127.0318 233.0944 13.20773445139528
ONEWEB-0516             
1 54134U 22138X   25231.92708879 -.00000009  00000+0 -54838-4 0  9998
2 54134  87.9254   4.8830 0001721  94.1584 265.9745 13.19722394137098
ONEWEB-0517             
1 54135U 22138Y   25231.90656408 -.00000015  00000+0 -69520-4 0  9998
2 54135  87.9263   4.8476 0002125  98.6953 261.4420 13.19724332137098
ONEWEB-0518             
1 54136U 22138Z   25231.92552074  .00000001  00000+0 -28612-4 0  9996
2 54136  87.9260   4.8803 0001842  91.1078 269.0265 13.19726785137096
ONEWEB-0519             
1 54137U 22138AA  25231.87497777 -.00000020  00000+0 -81864-4 0  9999
2 54137  87.9264   4.8459 0002077  97.4545 262.6823 13.19724308137095
